{"fetched_at":"2026-07-06T08:46:52.251Z","source":"https://celestrak.org/NORAD/elements/gp.php?NAME=BRO&FORMAT=JSON","constellation":"unseenlabs","records":[{"OBJECT_NAME":"BRO-5","OBJECT_ID":"2022-002CF","EPOCH":"2026-07-05T14:39:40.039776","CLASSIFICATION_TYPE":"U","MEAN_MOTION":15.48462276,"ECCENTRICITY":0.0004352,"INCLINATION":97.2981,"RA_OF_ASC_NODE":260.4549,"ARG_OF_PERICENTER":240.8163,"MEAN_ANOMALY":119.2653,"EPHEMERIS_TYPE":0,"NORAD_CAT_ID":51061,"ELEMENT_SET_NO":999,"REV_AT_EPOCH":24910,"BSTAR":0.0006397876,"MEAN_MOTION_DOT":0.00033993,"MEAN_MOTION_DDOT":0},{"OBJECT_NAME":"BRO-6","OBJECT_ID":"2022-047AE","EPOCH":"2026-07-05T14:06:04.538592","CLASSIFICATION_TYPE":"U","MEAN_MOTION":15.51966174,"ECCENTRICITY":0.00034393,"INCLINATION":97.3391,"RA_OF_ASC_NODE":278.0124,"ARG_OF_PERICENTER":2.5159,"MEAN_ANOMALY":357.611,"EPHEMERIS_TYPE":0,"NORAD_CAT_ID":52422,"ELEMENT_SET_NO":999,"REV_AT_EPOCH":23400,"BSTAR":0.00079270304,"MEAN_MOTION_DOT":0.00047758,"MEAN_MOTION_DDOT":0},{"OBJECT_NAME":"BRO-8","OBJECT_ID":"2023-001C","EPOCH":"2026-07-05T15:29:44.700864","CLASSIFICATION_TYPE":"U","MEAN_MOTION":15.50284378,"ECCENTRICITY":0.0005896,"INCLINATION":97.3188,"RA_OF_ASC_NODE":252.1096,"ARG_OF_PERICENTER":70.9355,"MEAN_ANOMALY":289.2534,"EPHEMERIS_TYPE":0,"NORAD_CAT_ID":55011,"ELEMENT_SET_NO":999,"REV_AT_EPOCH":19506,"BSTAR":0.00068947713,"MEAN_MOTION_DOT":0.00039094,"MEAN_MOTION_DDOT":0},{"OBJECT_NAME":"BRO-11","OBJECT_ID":"2023-174J","EPOCH":"2026-07-05T15:44:23.916768","CLASSIFICATION_TYPE":"U","MEAN_MOTION":15.27532755,"ECCENTRICITY":0.00115766,"INCLINATION":97.3895,"RA_OF_ASC_NODE":263.3319,"ARG_OF_PERICENTER":136.9663,"MEAN_ANOMALY":223.2484,"EPHEMERIS_TYPE":0,"NORAD_CAT_ID":58264,"ELEMENT_SET_NO":999,"REV_AT_EPOCH":14757,"BSTAR":0.00019540812,"MEAN_MOTION_DOT":0.00005197,"MEAN_MOTION_DDOT":0},{"OBJECT_NAME":"BRO-13","OBJECT_ID":"2024-043K","EPOCH":"2026-07-05T14:41:43.176192","CLASSIFICATION_TYPE":"U","MEAN_MOTION":14.96636236,"ECCENTRICITY":0.00078269,"INCLINATION":97.8517,"RA_OF_ASC_NODE":317.6918,"ARG_OF_PERICENTER":301.8133,"MEAN_ANOMALY":58.2326,"EPHEMERIS_TYPE":0,"NORAD_CAT_ID":59107,"ELEMENT_SET_NO":999,"REV_AT_EPOCH":12737,"BSTAR":0.000066604658,"MEAN_MOTION_DOT":0.000007,"MEAN_MOTION_DDOT":0},{"OBJECT_NAME":"BRO-12","OBJECT_ID":"2024-043L","EPOCH":"2026-07-05T14:31:48.097920","CLASSIFICATION_TYPE":"U","MEAN_MOTION":14.96883405,"ECCENTRICITY":0.00070157,"INCLINATION":97.8508,"RA_OF_ASC_NODE":317.852,"ARG_OF_PERICENTER":297.2117,"MEAN_ANOMALY":62.8389,"EPHEMERIS_TYPE":0,"NORAD_CAT_ID":59108,"ELEMENT_SET_NO":999,"REV_AT_EPOCH":12739,"BSTAR":0.000066794588,"MEAN_MOTION_DOT":0.00000707,"MEAN_MOTION_DDOT":0},{"OBJECT_NAME":"BRO-14","OBJECT_ID":"2024-149CM","EPOCH":"2026-07-05T04:26:58.553088","CLASSIFICATION_TYPE":"U","MEAN_MOTION":14.96224394,"ECCENTRICITY":0.0007687,"INCLINATION":97.6869,"RA_OF_ASC_NODE":261.6399,"ARG_OF_PERICENTER":46.3375,"MEAN_ANOMALY":313.8482,"EPHEMERIS_TYPE":0,"NORAD_CAT_ID":60551,"ELEMENT_SET_NO":999,"REV_AT_EPOCH":10268,"BSTAR":0.00011349,"MEAN_MOTION_DOT":0.00001223,"MEAN_MOTION_DDOT":0},{"OBJECT_NAME":"BRO-15","OBJECT_ID":"2024-149CP","EPOCH":"2026-07-05T04:01:58.230048","CLASSIFICATION_TYPE":"U","MEAN_MOTION":14.96220515,"ECCENTRICITY":0.0008805,"INCLINATION":97.6814,"RA_OF_ASC_NODE":261.2074,"ARG_OF_PERICENTER":34.7524,"MEAN_ANOMALY":325.4271,"EPHEMERIS_TYPE":0,"NORAD_CAT_ID":60553,"ELEMENT_SET_NO":999,"REV_AT_EPOCH":10269,"BSTAR":0.00038676,"MEAN_MOTION_DOT":0.00004309,"MEAN_MOTION_DDOT":0},{"OBJECT_NAME":"BRO-16","OBJECT_ID":"2025-009AX","EPOCH":"2026-07-05T04:48:57.879360","CLASSIFICATION_TYPE":"U","MEAN_MOTION":15.24078884,"ECCENTRICITY":0.0001151,"INCLINATION":97.4051,"RA_OF_ASC_NODE":266.4641,"ARG_OF_PERICENTER":177.7637,"MEAN_ANOMALY":182.3606,"EPHEMERIS_TYPE":0,"NORAD_CAT_ID":62654,"ELEMENT_SET_NO":999,"REV_AT_EPOCH":8154,"BSTAR":0.00021948,"MEAN_MOTION_DOT":0.00005257,"MEAN_MOTION_DDOT":0},{"OBJECT_NAME":"BRO-18","OBJECT_ID":"2025-135Y","EPOCH":"2026-07-05T14:14:59.086752","CLASSIFICATION_TYPE":"U","MEAN_MOTION":15.22118017,"ECCENTRICITY":0.00020498,"INCLINATION":97.4648,"RA_OF_ASC_NODE":301.4829,"ARG_OF_PERICENTER":126.841,"MEAN_ANOMALY":233.3014,"EPHEMERIS_TYPE":0,"NORAD_CAT_ID":64550,"ELEMENT_SET_NO":999,"REV_AT_EPOCH":5767,"BSTAR":0.00023175229,"MEAN_MOTION_DOT":0.0000524,"MEAN_MOTION_DDOT":0},{"OBJECT_NAME":"BRO-17","OBJECT_ID":"2025-276G","EPOCH":"2026-07-05T05:50:27.538656","CLASSIFICATION_TYPE":"U","MEAN_MOTION":15.1811683,"ECCENTRICITY":0.0005236,"INCLINATION":97.418,"RA_OF_ASC_NODE":259.0047,"ARG_OF_PERICENTER":305.5808,"MEAN_ANOMALY":54.4938,"EPHEMERIS_TYPE":0,"NORAD_CAT_ID":66672,"ELEMENT_SET_NO":999,"REV_AT_EPOCH":3313,"BSTAR":0.00023903,"MEAN_MOTION_DOT":0.00004811,"MEAN_MOTION_DDOT":0},{"OBJECT_NAME":"BRO-20","OBJECT_ID":"2025-276J","EPOCH":"2026-07-05T03:42:37.586880","CLASSIFICATION_TYPE":"U","MEAN_MOTION":15.18285181,"ECCENTRICITY":0.0004902,"INCLINATION":97.4161,"RA_OF_ASC_NODE":258.9063,"ARG_OF_PERICENTER":310.2162,"MEAN_ANOMALY":49.8643,"EPHEMERIS_TYPE":0,"NORAD_CAT_ID":66674,"ELEMENT_SET_NO":999,"REV_AT_EPOCH":3312,"BSTAR":0.00024297,"MEAN_MOTION_DOT":0.00004915,"MEAN_MOTION_DDOT":0},{"OBJECT_NAME":"BRO-19","OBJECT_ID":"2026-067G","EPOCH":"2026-07-04T07:26:31.737120","CLASSIFICATION_TYPE":"U","MEAN_MOTION":15.18930459,"ECCENTRICITY":0.0002061,"INCLINATION":97.4478,"RA_OF_ASC_NODE":143.5223,"ARG_OF_PERICENTER":117.4318,"MEAN_ANOMALY":242.7126,"EPHEMERIS_TYPE":0,"NORAD_CAT_ID":68422,"ELEMENT_SET_NO":999,"REV_AT_EPOCH":1454,"BSTAR":0.00019843,"MEAN_MOTION_DOT":0.00004076,"MEAN_MOTION_DDOT":0},{"OBJECT_NAME":"BRO-21","OBJECT_ID":"2026-100AD","EPOCH":"2026-07-05T06:38:29.425344","CLASSIFICATION_TYPE":"U","MEAN_MOTION":15.21588076,"ECCENTRICITY":0.0007926,"INCLINATION":97.402,"RA_OF_ASC_NODE":83.8748,"ARG_OF_PERICENTER":5.4921,"MEAN_ANOMALY":354.64,"EPHEMERIS_TYPE":0,"NORAD_CAT_ID":69007,"ELEMENT_SET_NO":999,"REV_AT_EPOCH":955,"BSTAR":0.00016535,"MEAN_MOTION_DOT":0.00003663,"MEAN_MOTION_DDOT":0},{"OBJECT_NAME":"BRO-22","OBJECT_ID":"2026-132C","EPOCH":"2026-07-05T04:00:03.362112","CLASSIFICATION_TYPE":"U","MEAN_MOTION":14.99790448,"ECCENTRICITY":0.0015508,"INCLINATION":97.6837,"RA_OF_ASC_NODE":249.6168,"ARG_OF_PERICENTER":217.5244,"MEAN_ANOMALY":142.4898,"EPHEMERIS_TYPE":0,"NORAD_CAT_ID":69504,"ELEMENT_SET_NO":999,"REV_AT_EPOCH":347,"BSTAR":0.00014333,"MEAN_MOTION_DOT":0.00001717,"MEAN_MOTION_DDOT":0}]}
