BRO-5                   
1 51061U 22002CF  26186.61088009  .00033993  00000+0  63979-3 0  9997
2 51061  97.2981 260.4549 0004352 240.8163 119.2653 15.48462276249107
BRO-6                   
1 52422U 22047AE  26186.58755253  .00047758  00000+0  79270-3 0  9991
2 52422  97.3391 278.0124 0003439   2.5159 357.6110 15.51966174234001
BRO-8                   
1 55011U 23001C   26186.64565626  .00039094  00000+0  68948-3 0  9993
2 55011  97.3188 252.1096 0005896  70.9355 289.2534 15.50284378195069
BRO-11                  
1 58264U 23174J   26186.65583237  .00005197  00000+0  19541-3 0  9998
2 58264  97.3895 263.3319 0011576 136.9663 223.2484 15.27532755147570
BRO-13                  
1 59107U 24043K   26186.61230528  .00000700  00000+0  66605-4 0  9998
2 59107  97.8517 317.6918 0007826 301.8133  58.2326 14.96636236127370
BRO-12                  
1 59108U 24043L   26186.60541780  .00000707  00000+0  66795-4 0  9990
2 59108  97.8508 317.8520 0007015 297.2117  62.8389 14.96883405127396
BRO-14                  
1 60551U 24149CM  26186.18539992  .00001223  00000+0  11349-3 0  9994
2 60551  97.6869 261.6399 0007686  46.3375 313.8482 14.96224394102685
BRO-15                  
1 60553U 24149CP  26186.16803507  .00004309  00000+0  38676-3 0  9990
2 60553  97.6814 261.2074 0008804  34.7524 325.4271 14.96220515102690
BRO-16                  
1 62654U 25009AX  26186.20066990  .00005257  00000+0  21948-3 0  9999
2 62654  97.4051 266.4641 0001151 177.7637 182.3606 15.24078884 81547
BRO-18                  
1 64550U 25135Y   26186.59373943  .00005240  00000+0  23175-3 0  9993
2 64550  97.4648 301.4829 0002049 126.8410 233.3014 15.22118017 57673
BRO-17                  
1 66672U 25276G   26186.24337430  .00004811  00000+0  23903-3 0  9991
2 66672  97.4180 259.0047 0005236 305.5808  54.4938 15.18116830 33137
BRO-20                  
1 66674U 25276J   26186.15460171  .00004915  00000+0  24297-3 0  9994
2 66674  97.4161 258.9063 0004901 310.2162  49.8643 15.18285181 33124
BRO-19                  
1 68422U 26067G   26185.31008955  .00004076  00000+0  19843-3 0  9990
2 68422  97.4478 143.5223 0002061 117.4318 242.7126 15.18930459 14540
BRO-21                  
1 69007U 26100AD  26186.27672946  .00003663  00000+0  16535-3 0  9997
2 69007  97.4020  83.8748 0007926   5.4921 354.6400 15.21588077  9554
BRO-22                  
1 69504U 26132C   26186.16670559  .00001717  00000+0  14333-3 0  9992
2 69504  97.6837 249.6168 0015508 217.5244 142.4898 14.99790448  3471
